NOAA 1 [-]              
1 04793U 70106A   21171.43420490 -.00000051  00000-0 -44210-4 0  9998
2 04793 101.6068 238.5822 0031138 306.4102  64.2864 12.53999323312696
NOAA 2 (ITOS-D) [-]     
1 06235U 72082A   21171.50920535 -.00000023  00000-0  14074-3 0  9991
2 06235 101.9042 147.2293 0004515  50.6365  58.9048 12.53135999226868
NOAA 3 [-]              
1 06920U 73086A   21171.57375675 -.00000058  00000-0 -93492-4 0  9994
2 06920 102.1588 147.7547 0005961 237.3377 234.5033 12.40342694156111
NOAA 4 [-]              
1 07529U 74089A   21171.57266934 -.00000031  00000-0  94175-4 0  9990
2 07529 101.8622 145.9241 0009538  77.3498  37.5102 12.53149914131466
NOAA 5 [-]              
1 09057U 76077A   21171.13152199 -.00000027  00000-0  13877-3 0  9990
2 09057 102.0421 138.8258 0010431  87.3539 283.8510 12.37760224 29138
TIROS N [-]             
1 11060U 78096A   21171.38292745  .00000007  00000-0  24570-4 0  9999
2 11060  98.6870 228.6742 0011784 104.4433 255.8051 14.18312941420522
NOAA 6 [-]              
1 11416U 79057A   21171.26125992  .00000043  00000-0  31574-4 0  9990
2 11416  98.6651 176.5173 0009178 244.5264 115.4971 14.33639693189836
NOAA 7 [-]              
1 12553U 81059A   21171.35832283 -.00000019  00000-0  13402-4 0  9990
2 12553  99.0463 205.2706 0012477  67.0279 293.2210 14.17297254 66725
NOAA 8 [-]              
1 13923U 83022A   21171.50974477  .00000010  00000-0  21463-4 0  9999
2 13923  98.6542 159.1489 0014966 184.1903 175.9155 14.28738801990983
NOAA 9 [-]              
1 15427U 84123A   21171.50686889  .00000005  00000-0  25386-4 0  9992
2 15427  98.9939 134.2995 0015831 110.3824 359.1119 14.16135500885611
NOAA 10 [-]             
1 16969U 86073A   21171.53141390  .00000003  00000-0  18547-4 0  9995
2 16969  98.5325 160.1126 0011142 297.1932 173.3503 14.28136893809435
NOAA 11 [-]             
1 19531U 88089A   21170.94987224 -.00000012  00000-0  14655-4 0  9997
2 19531  98.4034 175.4421 0011944 139.3070 220.9000 14.15274775689543
NOAA 12 [-]             
1 21263U 91032A   21170.86381467  .00000011  00000-0  22318-4 0  9995
2 21263  98.5040 176.0882 0012907 324.7310  35.3015 14.25942899565054
NOAA 13 [-]             
1 22739U 93050A   21171.26843570  .00000023  00000-0  34370-4 0  9993
2 22739  98.4680 164.9329 0008500 306.0317  54.0068 14.12786812436159
NOAA 14 [-]             
1 23455U 94089A   21170.87791469 -.00000038  00000-0  19098-5 0  9995
2 23455  98.4902 211.3283 0008310 288.5090  71.5181 14.14163420365460
NOAA 15 [B]             
1 25338U 98030A   21171.31334313  .00000084  00000-0  53502-4 0  9995
2 25338  98.6812 199.8128 0009169 272.7150  87.2980 14.26038729201654
NOAA 16 [-]             
1 26536U 00055A   21170.85043461 -.00000022  00000-0  10809-4 0  9991
2 26536  98.6864 236.2357 0011594 117.8820 242.3529 14.13280894366136
NOAA 17 [-]             
1 27453U 02032A   21171.49484695 -.00000013  00000-0  13119-4 0  9993
2 27453  98.6283 116.9346 0010729 243.1123 116.8961 14.25061585987322
NOAA 18 [B]             
1 28654U 05018A   21171.42086944  .00000066  00000-0  60270-4 0  9999
2 28654  98.9936 236.2972 0013143 273.6668  86.3000 14.12615481828954
NOAA 19 [+]             
1 33591U 09005A   21171.31355316  .00000065  00000-0  60290-4 0  9996
2 33591  99.1826 192.0902 0014850 122.4548 237.8061 14.12476237637320
SUOMI NPP [+]           
1 37849U 11061A   21171.35114437 -.00000011  00000-0  15654-4 0  9998
2 37849  98.7376 109.9852 0000822  70.9396  88.1428 14.19534784499811
NOAA 20 [+]             
1 43013U 17073A   21171.21467147 -.00000005  00000-0  18147-4 0  9994
2 43013  98.7209 109.8141 0001242  71.1912 288.9399 14.19547187185832
